[
    {
        "Altitude(m)": 624790.8240265193,
        "Argument of Periapsis(deg)": 0.0,
        "Eccentricity": 0.0,
        "Inclination(deg)": 60.0,
        "Latitude(deg)": -59.14720340173858,
        "Longitude(deg)": -28.96523790716221,
        "Mean Anomaly(deg)": -81.81819999999999,
        "RAAN(deg)": 145.0,
        "Satellite Name": "Test1 655",
        "Satellite Number": 655,
        "Semi-Major Axis(m)": 6980739.136638005,
        "Time(s)": 0
    },
    {
        "Altitude(m)": 624737.4785680616,
        "Argument of Periapsis(deg)": 0.00010418945913296404,
        "Eccentricity": 0.0,
        "Inclination(deg)": 60.0,
        "Latitude(deg)": -58.99465670324669,
        "Longitude(deg)": -27.84573399585199,
        "Mean Anomaly(deg)": -81.19809385453813,
        "RAAN(deg)": 144.99957995086027,
        "Satellite Name": "Test1 655",
        "Satellite Number": 655,
        "Semi-Major Axis(m)": 6980739.136638005,
        "Time(s)": 10
    }
]